#dP2024  5 30 12  0  0.00000000      96 __u+U IGS20 EXT  IAC
## 2316 388800.00000000   900.00000000 60460 0.5000000000000
+   54   G02G03G04G05G06G07G08G09G10G11G12G13G14G15G16G17G18
+        G19G20G21G22G23G24G25G26G27G28G29G30G31G32R01R02R03
+        R04R05R07R08R09R11R12R13R14R15R16R17R18R19R20R21R22
+        R24R25R26  0  0  0  0  0  0  0  0  0  0  0  0  0  0
+          0  0  0  0  0  0  0  0  0  0  0  0  0  0  0  0  0
++         6  7  8  7  7  7  8  7  8  7  8  8  7  7 10  7  8
++         8  7  8  8  8  8  8  8 10  8  7  6  8  7  8  8  7
++         9  7  7  7  8  8  7  7  8  7  8  8  9  8  9  8  9
++         8  6  9  0  0  0  0  0  0  0  0  0  0  0  0  0  0
++         0  0  0  0  0  0  0  0  0  0  0  0  0  0  0  0  0
%c M  cc GPS ccc cccc cccc cccc cccc ccccc ccccc ccccc ccccc
%c cc cc ccc ccc cccc cccc cccc cccc ccccc ccccc ccccc ccccc
%f  0.0000000  0.000000000  0.00000000000  0.000000000000000
%f  0.0000000  0.000000000  0.00000000000  0.000000000000000
%i    0    0    0    0      0      0      0      0         0
%i    0    0    0    0      0      0      0      0         0
/* IAC                                ULTRA-RAPID PREDICTION
/* S/V CLOCKS ARE ALIGNED TO GNSS TIME                      
/* G:C1WC2W R:C1PC2P E:C1XC5X C:C2IC6I J:C1CC2S             
/* PCV:IGS20_2290 OL/AL:FES2004  NONE     YN ORB:CoN CLK:CoN
*  2024 05 30 23  0  0.00000000
PG02 -14660.023703  21912.182229   1832.497792   -426.674220
PG03 -10640.537659  12781.198807 -20835.454626    389.971131
PG04  -4238.818529  20176.084464 -16652.649119    372.695105
PG05  23622.843144  -5916.450032  10526.356969   -174.597576
PG06  13169.167670   6572.853439 -22055.524357    245.227981
PG07   -680.434727  21019.566480  16453.574741   -108.561608
PG08 -11332.089695  11040.183391  21167.325023    205.746364
PG09   6604.642084  24810.701714  -6773.229198    216.193501
PG10 -20884.957765 -10771.897983  12896.578567    -32.863124
PG11  19689.178704  -6244.697648 -16645.170798   -674.674050
PG12  13438.686905 -11757.667626 -19928.052822   -509.942725
PG13  14963.281558  -1613.843329  21691.684994    654.458005
PG14  17532.668829  13220.497387  15125.106069    413.659804
PG15   9920.249452 -12653.277510  20617.004023    164.800060
PG16 -25487.271444    725.894570   7882.296700   -277.575470
PG17  12927.916280  22131.721575  -6218.541945    700.958567
PG18   1093.036320 -20454.239306  16807.100248   -618.333635
PG19  15880.785509  15758.534558 -14791.812222    489.525331
PG20  26394.361578  -2128.425373    217.710043    374.669888
PG21 -16785.534446  18770.771836   6995.916324    118.458659
PG22  22595.577189  10723.096367   8907.913995    -20.852096
PG23  -9794.565900 -14320.063059  20192.885605    238.475072
PG24  14849.379124 -21534.268723   2638.713684   -474.127155
PG25   2428.428941 -15427.774789 -21813.566730    496.608596
PG26 -25701.251731  -4856.834179  -5780.036127    144.796685
PG27 -16467.427395  -1504.357570  20584.524901    -26.335559
PG28 -12207.444466  -9098.684128 -21773.504187   -267.109379
PG29  -2273.174576 -24777.476035  -9173.911152   -596.316022
PG30   8810.710831  14055.528694  20845.321345   -382.078853
PG31 -18520.323335   1786.187875 -19310.892278   -227.632661
PG32 -15530.490363 -19950.895314  -8248.555513   -617.463018
PR01  16897.291094   3436.781140  18808.834422     86.968308
PR02   4759.891285 -10300.504152  22898.572799    -23.112650
PR03 -10032.898963 -18924.813361  13944.308238    101.166094
PR04 -18751.230310 -17138.009354  -2341.380833    238.872282
PR05 -17575.749419  -6215.693793 -17405.914068    132.318127
PR07  10613.912868  19027.314746 -13183.135225     83.513252
PR08  18993.374404  16790.663588   2748.381139     -4.378528
PR09 -17499.079428  12607.671681  13572.554589    189.507551
PR11  15193.800869   5323.994891  19805.083501     22.991583
PR12  24680.411910  -5214.330965   3781.592540     40.749838
PR13  19621.677167 -11627.358802 -11431.147823    -47.890008
PR14   1017.915661 -11753.936832 -22602.393555     26.530205
PR15 -16519.734590  -4689.524006 -18835.337457     79.297804
PR16 -24620.703316   5257.002899  -3966.680396     26.049720
PR17   1997.890714 -23790.522961   8928.102803     91.502866
PR18  -6202.072583 -13203.856684  20947.202627    144.651578
PR19 -11279.316839   2050.181648  22780.327219   -278.527479
PR20 -10970.752248  20897.556064   9625.578103   -113.675086
PR21  -2357.679955  23867.322229  -8731.764767   -105.199301
PR22   6778.113930  12343.373073 -21244.137350    107.785898
PR24  10059.828797 -21630.959283  -8999.786083    -57.927735
PR25  -2691.380381  23680.535134  -9119.614508    -16.061886
PR26  18770.257077  17239.860031   1384.861199     -7.309061
*  2024 05 30 23 15  0.00000000
PG02 -14724.118311  21506.243390   4686.323781   -426.668008
PG03 -12911.121205  12537.122185 -19647.352948    389.987881
PG04  -5197.300713  18402.739908 -18358.441103    372.702534
PG05  24693.288942  -5692.406856   7922.596547   -174.598868
PG06  11723.980042   8654.754457 -22142.366105    245.209660
PG07  -1812.279733  22312.794940  14439.991927   -108.547475
PG08 -12539.722477   8881.169877  21535.546037    205.763706
PG09   5962.955628  24109.173761  -9421.229732    216.206399
PG10 -19323.530606 -10782.795783  15133.427742    -32.869825
PG11  18607.582355  -4547.710817 -18354.442900   -674.681873
PG12  15551.821207 -11347.426832 -18557.983027   -509.945722
PG13  15704.847653    768.532685  21233.929302    654.460570
PG14  15694.838116  13234.286957  16999.700325    413.668085
PG15  11390.955016 -10634.546094  21001.972516    164.803774
PG16 -26222.582894    395.465681   5180.438097   -277.566252
PG17  12933.153449  22779.918610  -3408.456685    700.954551
PG18   2264.395630 -21845.121836  14802.674486   -618.338417
PG19  16257.502738  17242.725220 -12564.003929    489.530170
PG20  26280.634917  -1828.695627  -2628.923218    374.668655
PG21 -16602.578531  17812.917983   9688.739510    118.456600
PG22  21453.492007  10778.231534  11450.356340    -20.856707
PG23  -7441.054711 -14283.606943  21182.211769    238.483447
PG24  14923.656090 -20909.383697   5411.902423   -474.129874
PG25   4835.264268 -15264.634744 -21497.727505    496.609150
PG26 -24915.614019  -5155.242141  -8397.837982    144.791327
PG27 -17441.233444  -3637.570759  19541.073085    -26.336955
PG28 -10872.921651 -11182.152526 -21508.939320   -267.124501
PG29  -1642.291550 -23747.773624 -11707.916873   -596.314644
PG30   7422.707988  15919.459625  19998.860784   -382.073404
PG31 -17310.594716    -83.406052 -20458.646518   -227.632523
PG32 -15689.466020 -20777.835256  -5549.614655   -617.462326
PR01  18619.805338   4799.325787  16775.350967     86.969502
PR02   6819.067774  -8357.649094  23163.378472    -23.112714
PR03  -8745.081328 -17576.768663  16368.639937    101.167040
PR04 -18942.412269 -17070.912540    883.170976    238.873922
PR05 -19129.876157  -7496.918985 -15115.329325    132.318739
PR07   9375.595148  17726.565767 -15692.052676     83.513962
PR08  19199.818151  16761.995350   -468.898179     -4.379006
PR09 -18895.648417  13178.868037  10879.857624    189.509409
PR11  12770.725419   6054.509463  21252.203367     22.990509
PR12  24016.899938  -5135.737809   6899.660780     40.750259
PR13  20750.958250 -12131.433298  -8546.893832    -47.890335
PR14   3613.310148 -12646.957332 -21844.181964     26.530290
PR15 -14186.527217  -5373.574349 -20481.338116     79.297525
PR16 -23924.252523   5182.844310  -7090.210080     26.050016
PR17   2026.490008 -24721.534682   5863.085220     91.505951
PR18  -5724.819823 -15645.581215  19343.550917    144.653262
PR19 -10503.294990   -687.207460  23228.372866   -278.528641
PR20 -10423.787334  19629.556845  12482.829091   -113.675681
PR21  -2372.589372  24775.543291  -5655.865727   -105.202110
PR22   6187.939578  14812.495507 -19797.478076    107.782709
PR24   9641.758731 -20403.341380 -11866.014625    -57.929098
PR25  -2799.229842  24623.071565  -6089.437019    -16.133715
PR26  18858.491582  17096.788210  -1832.922520     -7.308365
EOF
